GLOBALSTAR M075 [+]     
1 37192U 10054E   23269.42301309 -.00000069  00000+0  19556-3 0  9990
2 37192  51.9947 299.0341 0000378  62.9172  41.7985 12.62261673596473
GLOBALSTAR M073 [+]     
1 37193U 10054F   23269.18587700 -.00000108  00000+0 -23315-4 0  9999
2 37193  52.0051 213.0914 0000552  62.4462  44.3551 12.62267664598279
GLOBALSTAR M083 [+]     
1 37739U 11033A   23269.04018861 -.00000094  00000+0  54415-4 0  9993
2 37739  51.9849 163.1268 0000434  58.5460  47.1317 12.62269374567275
GLOBALSTAR M088 [+]     
1 37740U 11033B   23268.77619532 -.00000092  00000+0  64193-4 0  9998
2 37740  51.9735  69.9508 0000555  73.4730  31.4259 12.62265852562780
GLOBALSTAR M091 [+]     
1 37741U 11033C   23269.49611760 -.00000105  00000+0 -79385-5 0  9990
2 37741  52.0021  30.1876 0000422  77.5579 359.7063 12.62266421563927
GLOBALSTAR M085 [+]     
1 37742U 11033D   23269.40427065 -.00000100  00000+0  22456-4 0  9995
2 37742  51.9895 342.0653 0000288  88.6229 351.9711 12.62262940564161
GLOBALSTAR M081 [+]     
1 37743U 11033E   23269.51487885 -.00000079  00000+0  13737-3 0  9990
2 37743  51.9985 344.1273 0000446  63.5496  39.7138 12.62264556564324
GLOBALSTAR M089 [+]     
1 37744U 11033F   23269.39611531 -.00000063  00000+0  22859-3 0  9992
2 37744  51.9930 298.8366 0000642  88.8137  14.0280 12.62267318565158
